#dP2024 11 18 18  0  0.00000000      96 __u+U IGS20 EXT  IAC
## 2341 151200.00000000   900.00000000 60632 0.7500000000000
+   51   G02G03G04G05G06G07G08G09G10G11G12G13G14G15G16G17G18
+        G19G20G21G22G23G24G25G26G27G28G29G30G31G32R01R03R04
+        R05R07R08R09R11R12R14R15R16R17R18R19R20R21R22R24R26
+          0  0  0  0  0  0  0  0  0  0  0  0  0  0  0  0  0
+          0  0  0  0  0  0  0  0  0  0  0  0  0  0  0  0  0
++         7  7  8  6  7  8  7  7  8  7  8  7  8  8  8  7  7
++         7  7  8  8  9  7  8  7  7  8  8  7  6  7  6  9  9
++         9  8  8  8  8  8  7  8  9  8  8  9  9  8  7  9  8
++         0  0  0  0  0  0  0  0  0  0  0  0  0  0  0  0  0
++         0  0  0  0  0  0  0  0  0  0  0  0  0  0  0  0  0
%c M  cc GPS ccc cccc cccc cccc cccc ccccc ccccc ccccc ccccc
%c cc cc ccc ccc cccc cccc cccc cccc ccccc ccccc ccccc ccccc
%f  0.0000000  0.000000000  0.00000000000  0.000000000000000
%f  0.0000000  0.000000000  0.00000000000  0.000000000000000
%i    0    0    0    0      0      0      0      0         0
%i    0    0    0    0      0      0      0      0         0
/* IAC                                ULTRA-RAPID PREDICTION
/* S/V CLOCKS ARE ALIGNED TO GNSS TIME                      
/* G:C1WC2W R:C1PC2P E:C1XC5X C:C2IC6I J:C1CC2S             
/* PCV:IGS20_2317 OL/AL:FES2004  NONE     YN ORB:CoN CLK:CoN
*  2024 11 19  0 30  0.00000000
PG02  13950.419503 -17525.968695  14457.170023   -311.454083
PG03  20159.255614 -12605.304334 -11887.602187    603.494995
PG04   9833.543067 -11600.694962 -21752.590584    481.809968
PG05 -25932.464889   4720.299332  -3721.120979   -193.424068
PG06  -7617.055449 -16878.118813 -18923.592118   -125.277868
PG07   5911.256930 -25561.172367   2494.716297    -19.371299
PG08  18375.671010  -1077.429975  19181.106977    417.205699
PG09    433.081702 -18573.789861 -19047.987485    449.870295
PG10  11569.269075  11689.564797  21156.443255   -201.101894
PG11 -14859.052534  -3097.826682 -21752.241406   -750.617985
PG12 -23338.964892   9684.511524  -8390.245584   -552.978149
PG13 -19327.789800  -8773.763750  15880.176273    686.590405
PG14  -7360.258320 -14176.592437  21291.342974    542.691398
PG15 -17776.616185   3772.867077  18898.453170    229.425034
PG16  25656.601870   1865.033435  -7840.761249   -124.854865
PG17 -11986.783378 -22514.065622   7448.667607    553.339511
PG18  -5320.965281  25562.060533   4183.955076   -660.459380
PG19 -17819.845347 -19760.741134  -3290.027370    564.353708
PG20 -22130.545899  -1517.123942 -14420.261611    368.617885
PG21  15456.419824 -11012.358472  18498.463209     97.123178
PG22 -14884.711542 -11401.164375  19086.793810    -80.436794
PG23  -3884.613476  15594.270188  21136.164251    366.110692
PG24 -14312.125122  16166.839555  14735.863319   -479.440376
PG25 -11700.485020  16105.430504 -17805.672456    498.899794
PG26  19400.697477   7081.980350 -17080.193403     21.425570
PG27  21400.796816   9926.670053  12318.982525    -34.677991
PG28   7487.772667  18691.453361 -17335.083493   -483.182704
PG29  -2639.226345  17972.095796 -19376.787732   -562.735794
PG30  -2481.057607 -23320.718973  12358.009416   -279.091724
PG31  13504.894756   8024.900508 -21624.266348   -221.517184
PG32  15617.377406  21140.422238   4755.092461   -571.789053
PR01  22638.812069  11541.125919   2191.953737    104.884570
PR03   7623.209587  -8157.633919 -22897.125919    111.647116
PR04  -9322.735397 -14466.796283 -18792.748375    264.619488
PR05 -21246.047904 -13301.594479  -4633.656106    140.911982
PR07  -7093.937310   8477.224932  23021.291056     95.259936
PR08   9660.964668  14542.770154  18671.563439     -6.234288
PR09 -21646.966575   9786.396689   9417.982965    221.339346
PR11  -5321.449326  15052.661354 -19891.727905      6.621840
PR12  13033.402732   3707.240001 -21593.617519     47.403022
PR14  17672.042672 -16686.733747   7717.321546     27.258816
PR15   3631.089274 -14454.773005  20714.167808     73.980031
PR16 -12844.545159  -3679.400669  21741.483204     30.913307
PR17   5312.951833 -20612.281688  14108.352651    141.098686
PR18  -1850.816074 -25367.057130  -1592.255003    172.568768
PR19  -7108.075926 -19127.282066 -15304.856716   -298.938391
PR20 -10348.096233   2562.284894 -23158.518297   -122.086345
PR21  -5846.419142  19824.601489 -14918.226771   -152.459808
PR22   1947.600389  25274.894551   2908.947479    -14.468005
PR24  10657.809109  -3625.439585  22915.717762    -80.673948
PR26   8049.611282  14147.774442  19650.393941   -133.425081
*  2024 11 19  0 45  0.00000000
PG02  13824.209529 -15813.281668  16508.044205   -311.446381
PG03  21353.072873 -12750.585021  -9329.023532    603.503782
PG04  11541.607465  -9782.342206 -21820.237094    481.815729
PG05 -25457.439907   4354.407780  -6520.418538   -193.425083
PG06  -6939.218885 -18848.239448 -17247.438746   -125.304329
PG07   6238.540720 -25542.302033   -363.041347    -19.369476
PG08  19845.243910    460.743529  17734.721683    417.214703
PG09   2128.954087 -17115.451806 -20272.756201    449.885643
PG10   9253.081996  12331.009822  21897.187286   -201.115027
PG11 -14104.365063  -5479.619271 -21790.505179   -750.619312
PG12 -24142.677016   9598.364795  -5683.026066   -552.980369
PG13 -20234.955610 -10247.454335  13779.209722    686.591793
PG14  -4989.243536 -14775.132807  21550.095434    542.698597
PG15 -19443.423450   2355.646398  17485.963431    229.429125
PG16  24716.748269   2226.773010 -10413.706542   -124.846093
PG17 -11183.710119 -21948.469184  10085.903752    553.326224
PG18  -5631.377436  25797.801897   1311.152845   -660.459680
PG19 -17782.024806 -20044.209427   -460.721225    564.357673
PG20 -20601.593346  -2457.142125 -16419.943721    368.617564
PG21  15255.638563  -8858.059749  19897.154074     97.122319
PG22 -12748.296197 -11891.151131  20346.666477    -80.439394
PG23  -6162.228030  16186.804449  20102.899631    366.117795
PG24 -14259.476777  14258.048555  16618.413798   -479.438342
PG25 -13565.547824  16450.800591 -16019.689087    498.899512
PG26  17568.432685   7918.171360 -18607.133321     21.413733
PG27  22186.651981  10979.491468   9890.236041    -34.677943
PG28   6895.373801  20477.134186 -15460.267786   -483.193221
PG29  -4198.569684  16309.544798 -20550.448655   -562.733137
PG30  -1869.388397 -24472.225691   9955.092463   -279.084672
PG31  12767.390868  10308.528306 -21058.258370   -221.516600
PG32  14983.888481  20828.255493   7489.276628   -571.784255
PR01  22266.152608  11223.174112   5362.540548    104.885800
PR03  10183.536625  -7029.093253 -22274.038242    111.647990
PR04  -7161.059956 -13348.520288 -20491.225605    264.621169
PR05 -20628.226480 -12815.939737  -7746.766662    140.912584
PR07  -9651.424839   7337.874336  22470.301464     95.260661
PR08   7519.087240  13461.310747  20390.191480     -6.234154
PR09 -20540.878844   9044.917001  12217.458601    221.341222
PR11  -7165.293124  16502.771212 -18082.745263      6.621112
PR12  10803.956267   5271.949114 -22478.688564     47.403479
PR14  18218.805533 -17228.176171   4637.160976     27.258935
PR15   5583.922505 -15943.062912  19125.280221     73.979733
PR16 -10607.592712  -5253.033431  22604.832673     30.913641
PR17   5340.902036 -18719.920414  16526.798473    141.101800
PR18  -2048.697061 -25351.307576   1647.710373    172.570562
PR19  -7359.858909 -20850.565127 -12719.000811   -298.939503
PR20 -10466.610159   -306.912482 -23241.962609   -122.086680
PR21  -5867.133090  17830.104052 -17246.849548   -152.462545
PR22   2101.547131  25423.764494   -296.323553    -14.478392
PR24  10910.382878   -805.652124  23067.304797    -80.675184
PR26   5787.462894  13044.571848  21155.075308   -133.424783
EOF
